{
  "type": "FeatureCollection",
  "features": [
    {
      "type": "Feature",
      "properties": {
        "norad_id": 36283,
        "name": "FENGYUN 1C DEB",
        "group": "fengyun-1c-debris",
        "lat": -15.223367361916882,
        "lon": 144.57543069227867,
        "alt_km": 595.7219034440232,
        "timestamp": "2025-12-25T07:00:34.337073+00:00",
        "meta_object_name": "FENGYUN 1C DEB",
        "meta_object_id": "1999-025DXL",
        "meta_epoch": "2025-12-24T15:48:14.147712",
        "meta_mean_motion": 15.06937596,
        "meta_eccentricity": 0.00659896,
        "meta_inclination": 99.4228,
        "meta_ra_of_asc_node": 326.3914,
        "meta_arg_of_pericenter": 12.9704,
        "meta_mean_anomaly": 347.3196,
        "meta_ephemeris_type": 0,
        "meta_classification_type": "U",
        "meta_norad_cat_id": 36283,
        "meta_element_set_no": 999,
        "meta_rev_at_epoch": 66845,
        "meta_bstar": 0.0022105342,
        "meta_mean_motion_dot": 0.00034786,
        "meta_mean_motion_ddot": 0,
        "tle_line1": "1 36283U 99025DXL 25358.65849708  .00034786  00000+0  22105-2 0  9996",
        "tle_line2": "2 36283  99.4228 326.3914 0065989  12.9704 347.3196 15.06937596668459"
      },
      "geometry": {
        "type": "Point",
        "coordinates": [
          144.57543069227867,
          -15.223367361916882
        ]
      }
    },
    {
      "type": "Feature",
      "properties": {
        "norad_id": 36644,
        "name": "FENGYUN 1C DEB",
        "group": "fengyun-1c-debris",
        "lat": 16.54048913715584,
        "lon": 133.6291304896293,
        "alt_km": 1171.969874440494,
        "timestamp": "2025-12-25T07:00:34.337083+00:00",
        "meta_object_name": "FENGYUN 1C DEB",
        "meta_object_id": "1999-025DXN",
        "meta_epoch": "2025-12-20T03:15:14.582880",
        "meta_mean_motion": 13.5921712,
        "meta_eccentricity": 0.0285778,
        "meta_inclination": 98.4233,
        "meta_ra_of_asc_node": 131.7114,
        "meta_arg_of_pericenter": 160.4918,
        "meta_mean_anomaly": 200.7431,
        "meta_ephemeris_type": 0,
        "meta_classification_type": "U",
        "meta_norad_cat_id": 36644,
        "meta_element_set_no": 999,
        "meta_rev_at_epoch": 61668,
        "meta_bstar": 0.0010197403,
        "meta_mean_motion_dot": 9.49e-06,
        "meta_mean_motion_ddot": 0,
        "tle_line1": "1 36644U 99025DXN 25354.13558545  .00000949  00000+0  10197-2 0  9994",
        "tle_line2": "2 36644  98.4233 131.7114 0285778 160.4918 200.7431 13.59217120616683"
      },
      "geometry": {
        "type": "Point",
        "coordinates": [
          133.6291304896293,
          16.54048913715584
        ]
      }
    },
    {
      "type": "Feature",
      "properties": {
        "norad_id": 36647,
        "name": "FENGYUN 1C DEB",
        "group": "fengyun-1c-debris",
        "lat": 73.14116250678106,
        "lon": 114.95923062816986,
        "alt_km": 1098.7915303454274,
        "timestamp": "2025-12-25T07:00:34.337094+00:00",
        "meta_object_name": "FENGYUN 1C DEB",
        "meta_object_id": "1999-025DXR",
        "meta_epoch": "2025-12-17T15:22:01.202880",
        "meta_mean_motion": 13.88856712,
        "meta_eccentricity": 0.02401846,
        "meta_inclination": 96.1202,
        "meta_ra_of_asc_node": 130.6548,
        "meta_arg_of_pericenter": 285.5466,
        "meta_mean_anomaly": 71.9303,
        "meta_ephemeris_type": 0,
        "meta_classification_type": "U",
        "meta_norad_cat_id": 36647,
        "meta_element_set_no": 999,
        "meta_rev_at_epoch": 30480,
        "meta_bstar": 0.0022455743,
        "meta_mean_motion_dot": 3.394e-05,
        "meta_mean_motion_ddot": 0,
        "tle_line1": "1 36647U 99025DXR 25351.64029170  .00003394  00000+0  22456-2 0  9995",
        "tle_line2": "2 36647  96.1202 130.6548 0240184 285.5466  71.9303 13.88856712304807"
      },
      "geometry": {
        "type": "Point",
        "coordinates": [
          114.95923062816986,
          73.14116250678106
        ]
      }
    },
    {
      "type": "Feature",
      "properties": {
        "norad_id": 36652,
        "name": "FENGYUN 1C DEB",
        "group": "fengyun-1c-debris",
        "lat": -17.263980758099212,
        "lon": 84.45553666933752,
        "alt_km": 787.6574136632271,
        "timestamp": "2025-12-25T07:00:34.337104+00:00",
        "meta_object_name": "FENGYUN 1C DEB",
        "meta_object_id": "1999-025DXW",
        "meta_epoch": "2025-12-24T10:50:21.142176",
        "meta_mean_motion": 14.22897296,
        "meta_eccentricity": 0.00509453,
        "meta_inclination": 98.9403,
        "meta_ra_of_asc_node": 80.7986,
        "meta_arg_of_pericenter": 318.2449,
        "meta_mean_anomaly": 41.4845,
        "meta_ephemeris_type": 0,
        "meta_classification_type": "U",
        "meta_norad_cat_id": 36652,
        "meta_element_set_no": 999,
        "meta_rev_at_epoch": 64491,
        "meta_bstar": 0.0017394097,
        "meta_mean_motion_dot": 3.918e-05,
        "meta_mean_motion_ddot": 0,
        "tle_line1": "1 36652U 99025DXW 25358.45163359  .00003918  00000+0  17394-2 0  9992",
        "tle_line2": "2 36652  98.9403  80.7986 0050945 318.2449  41.4845 14.22897296644919"
      },
      "geometry": {
        "type": "Point",
        "coordinates": [
          84.45553666933752,
          -17.263980758099212
        ]
      }
    },
    {
      "type": "Feature",
      "properties": {
        "norad_id": 36657,
        "name": "FENGYUN 1C DEB",
        "group": "fengyun-1c-debris",
        "lat": -67.53753765731135,
        "lon": 175.67923300659788,
        "alt_km": 692.6293909301548,
        "timestamp": "2025-12-25T07:00:34.337114+00:00",
        "meta_object_name": "FENGYUN 1C DEB",
        "meta_object_id": "1999-025DYB",
        "meta_epoch": "2025-12-24T16:34:37.790688",
        "meta_mean_motion": 14.65600132,
        "meta_eccentricity": 0.01054242,
        "meta_inclination": 99.4135,
        "meta_ra_of_asc_node": 151.3338,
        "meta_arg_of_pericenter": 30.9032,
        "meta_mean_anomaly": 329.8315,
        "meta_ephemeris_type": 0,
        "meta_classification_type": "U",
        "meta_norad_cat_id": 36657,
        "meta_element_set_no": 999,
        "meta_rev_at_epoch": 66431,
        "meta_bstar": 0.000583973,
        "meta_mean_motion_dot": 3.376e-05,
        "meta_mean_motion_ddot": 0,
        "tle_line1": "1 36657U 99025DYB 25358.69071517  .00003376  00000+0  58397-3 0  9994",
        "tle_line2": "2 36657  99.4135 151.3338 0105424  30.9032 329.8315 14.65600132664316"
      },
      "geometry": {
        "type": "Point",
        "coordinates": [
          175.67923300659788,
          -67.53753765731135
        ]
      }
    },
    {
      "type": "Feature",
      "properties": {
        "norad_id": 36659,
        "name": "FENGYUN 1C DEB",
        "group": "fengyun-1c-debris",
        "lat": -5.356330275997068,
        "lon": 4.385910645466923,
        "alt_km": 873.0708601604301,
        "timestamp": "2025-12-25T07:00:34.337127+00:00",
        "meta_object_name": "FENGYUN 1C DEB",
        "meta_object_id": "1999-025DYD",
        "meta_epoch": "2025-12-18T07:09:04.054176",
        "meta_mean_motion": 13.87384482,
        "meta_eccentricity": 0.01357919,
        "meta_inclination": 99.8541,
        "meta_ra_of_asc_node": 356.081,
        "meta_arg_of_pericenter": 60.2917,
        "meta_mean_anomaly": 301.1674,
        "meta_ephemeris_type": 0,
        "meta_classification_type": "U",
        "meta_norad_cat_id": 36659,
        "meta_element_set_no": 999,
        "meta_rev_at_epoch": 60502,
        "meta_bstar": 0.00061832075,
        "meta_mean_motion_dot": 7.35e-06,
        "meta_mean_motion_ddot": 0,
        "tle_line1": "1 36659U 99025DYD 25352.29796359  .00000735  00000+0  61832-3 0  9998",
        "tle_line2": "2 36659  99.8541 356.0810 0135791  60.2917 301.1674 13.87384482605024"
      },
      "geometry": {
        "type": "Point",
        "coordinates": [
          4.385910645466923,
          -5.356330275997068
        ]
      }
    },
    {
      "type": "Feature",
      "properties": {
        "norad_id": 36664,
        "name": "FENGYUN 1C DEB",
        "group": "fengyun-1c-debris",
        "lat": -41.41061720248446,
        "lon": -164.15832640265955,
        "alt_km": 954.7131480018779,
        "timestamp": "2025-12-25T07:00:34.337138+00:00",
        "meta_object_name": "FENGYUN 1C DEB",
        "meta_object_id": "1999-025DYJ",
        "meta_epoch": "2025-12-20T07:25:54.989472",
        "meta_mean_motion": 14.1795977,
        "meta_eccentricity": 0.01735704,
        "meta_inclination": 98.6034,
        "meta_ra_of_asc_node": 18.6846,
        "meta_arg_of_pericenter": 78.0372,
        "meta_mean_anomaly": 284.0202,
        "meta_ephemeris_type": 0,
        "meta_classification_type": "U",
        "meta_norad_cat_id": 36664,
        "meta_element_set_no": 999,
        "meta_rev_at_epoch": 63858,
        "meta_bstar": 7.0633235e-05,
        "meta_mean_motion_dot": 1.26e-06,
        "meta_mean_motion_ddot": 0,
        "tle_line1": "1 36664U 99025DYJ 25354.30966423  .00000126  00000+0  70633-4 0  9993",
        "tle_line2": "2 36664  98.6034  18.6846 0173570  78.0372 284.0202 14.17959770638588"
      },
      "geometry": {
        "type": "Point",
        "coordinates": [
          -164.15832640265955,
          -41.41061720248446
        ]
      }
    }
  ]
}